<?xml version="1.0" encoding="UTF-8"?>
<ndm xmlns:xsi="http://www.w3.org/2001/XMLSchema-instance" xsi:noNamespaceSchemaLocation="https://sanaregistry.org/r/ndmxml_unqualified/ndmxml-2.0.0-master-2.0.xsd">
<omm id="CCSDS_OMM_VERS" version="2.0">
<header><CREATION_DATE/><ORIGINATOR/></header><body><segment><metadata><OBJECT_NAME>KUIPER-00047</OBJECT_NAME><OBJECT_ID>2025-134H</OBJECT_ID><CENTER_NAME>EARTH</CENTER_NAME><REF_FRAME>TEME</REF_FRAME><TIME_SYSTEM>UTC</TIME_SYSTEM><MEAN_ELEMENT_THEORY>SGP4</MEAN_ELEMENT_THEORY></metadata><data><meanElements><EPOCH>2025-10-29T12:00:02.998944</EPOCH><MEAN_MOTION>15.08553178</MEAN_MOTION><ECCENTRICITY>.0009174</ECCENTRICITY><INCLINATION>51.8767</INCLINATION><RA_OF_ASC_NODE>77.0676</RA_OF_ASC_NODE><ARG_OF_PERICENTER>223.5038</ARG_OF_PERICENTER><MEAN_ANOMALY>299.0251</MEAN_ANOMALY></meanElements><tleParameters><EPHEMERIS_TYPE>0</EPHEMERIS_TYPE><CLASSIFICATION_TYPE>U</CLASSIFICATION_TYPE><NORAD_CAT_ID>64507</NORAD_CAT_ID><ELEMENT_SET_NO>999</ELEMENT_SET_NO><REV_AT_EPOCH>487</REV_AT_EPOCH><BSTAR>-.13438E+0</BSTAR><MEAN_MOTION_DOT>-.1923746E-1</MEAN_MOTION_DOT><MEAN_MOTION_DDOT>0</MEAN_MOTION_DDOT></tleParameters></data></segment></body></omm>
<omm id="CCSDS_OMM_VERS" version="2.0">
<header><CREATION_DATE/><ORIGINATOR/></header><body><segment><metadata><OBJECT_NAME>KUIPER-00048</OBJECT_NAME><OBJECT_ID>2025-134J</OBJECT_ID><CENTER_NAME>EARTH</CENTER_NAME><REF_FRAME>TEME</REF_FRAME><TIME_SYSTEM>UTC</TIME_SYSTEM><MEAN_ELEMENT_THEORY>SGP4</MEAN_ELEMENT_THEORY></metadata><data><meanElements><EPOCH>2025-10-29T12:00:02.998944</EPOCH><MEAN_MOTION>14.99227019</MEAN_MOTION><ECCENTRICITY>.0001949</ECCENTRICITY><INCLINATION>51.8905</INCLINATION><RA_OF_ASC_NODE>76.5625</RA_OF_ASC_NODE><ARG_OF_PERICENTER>280.5015</ARG_OF_PERICENTER><MEAN_ANOMALY>288.3186</MEAN_ANOMALY></meanElements><tleParameters><EPHEMERIS_TYPE>0</EPHEMERIS_TYPE><CLASSIFICATION_TYPE>U</CLASSIFICATION_TYPE><NORAD_CAT_ID>64508</NORAD_CAT_ID><ELEMENT_SET_NO>999</ELEMENT_SET_NO><REV_AT_EPOCH>540</REV_AT_EPOCH><BSTAR>-.10588E+0</BSTAR><MEAN_MOTION_DOT>-.1209601E-1</MEAN_MOTION_DOT><MEAN_MOTION_DDOT>0</MEAN_MOTION_DDOT></tleParameters></data></segment></body></omm>
<omm id="CCSDS_OMM_VERS" version="2.0">
<header><CREATION_DATE/><ORIGINATOR/></header><body><segment><metadata><OBJECT_NAME>KUIPER-00050</OBJECT_NAME><OBJECT_ID>2025-134L</OBJECT_ID><CENTER_NAME>EARTH</CENTER_NAME><REF_FRAME>TEME</REF_FRAME><TIME_SYSTEM>UTC</TIME_SYSTEM><MEAN_ELEMENT_THEORY>SGP4</MEAN_ELEMENT_THEORY></metadata><data><meanElements><EPOCH>2025-10-28T03:48:33.412320</EPOCH><MEAN_MOTION>14.95875090</MEAN_MOTION><ECCENTRICITY>.00051631</ECCENTRICITY><INCLINATION>51.8891</INCLINATION><RA_OF_ASC_NODE>93.8388</RA_OF_ASC_NODE><ARG_OF_PERICENTER>228.4293</ARG_OF_PERICENTER><MEAN_ANOMALY>131.6234</MEAN_ANOMALY></meanElements><tleParameters><EPHEMERIS_TYPE>0</EPHEMERIS_TYPE><CLASSIFICATION_TYPE>U</CLASSIFICATION_TYPE><NORAD_CAT_ID>64510</NORAD_CAT_ID><ELEMENT_SET_NO>999</ELEMENT_SET_NO><REV_AT_EPOCH>2052</REV_AT_EPOCH><BSTAR>.76752343E-3</BSTAR><MEAN_MOTION_DOT>.8429E-4</MEAN_MOTION_DOT><MEAN_MOTION_DDOT>0</MEAN_MOTION_DDOT></tleParameters></data></segment></body></omm>
<omm id="CCSDS_OMM_VERS" version="2.0">
<header><CREATION_DATE/><ORIGINATOR/></header><body><segment><metadata><OBJECT_NAME>KUIPER-00051</OBJECT_NAME><OBJECT_ID>2025-134M</OBJECT_ID><CENTER_NAME>EARTH</CENTER_NAME><REF_FRAME>TEME</REF_FRAME><TIME_SYSTEM>UTC</TIME_SYSTEM><MEAN_ELEMENT_THEORY>SGP4</MEAN_ELEMENT_THEORY></metadata><data><meanElements><EPOCH>2025-10-27T03:07:32.141568</EPOCH><MEAN_MOTION>14.79905076</MEAN_MOTION><ECCENTRICITY>.00020311</ECCENTRICITY><INCLINATION>51.9011</INCLINATION><RA_OF_ASC_NODE>97.2086</RA_OF_ASC_NODE><ARG_OF_PERICENTER>204.2906</ARG_OF_PERICENTER><MEAN_ANOMALY>155.7961</MEAN_ANOMALY></meanElements><tleParameters><EPHEMERIS_TYPE>0</EPHEMERIS_TYPE><CLASSIFICATION_TYPE>U</CLASSIFICATION_TYPE><NORAD_CAT_ID>64511</NORAD_CAT_ID><ELEMENT_SET_NO>999</ELEMENT_SET_NO><REV_AT_EPOCH>2038</REV_AT_EPOCH><BSTAR>-.27140408E-2</BSTAR><MEAN_MOTION_DOT>-.20834E-3</MEAN_MOTION_DOT><MEAN_MOTION_DDOT>0</MEAN_MOTION_DDOT></tleParameters></data></segment></body></omm>
<omm id="CCSDS_OMM_VERS" version="2.0">
<header><CREATION_DATE/><ORIGINATOR/></header><body><segment><metadata><OBJECT_NAME>KUIPER-00052</OBJECT_NAME><OBJECT_ID>2025-134N</OBJECT_ID><CENTER_NAME>EARTH</CENTER_NAME><REF_FRAME>TEME</REF_FRAME><TIME_SYSTEM>UTC</TIME_SYSTEM><MEAN_ELEMENT_THEORY>SGP4</MEAN_ELEMENT_THEORY></metadata><data><meanElements><EPOCH>2025-10-29T12:22:21.958752</EPOCH><MEAN_MOTION>15.63342083</MEAN_MOTION><ECCENTRICITY>.0006379</ECCENTRICITY><INCLINATION>51.8701</INCLINATION><RA_OF_ASC_NODE>58.4886</RA_OF_ASC_NODE><ARG_OF_PERICENTER>252.0016</ARG_OF_PERICENTER><MEAN_ANOMALY>108.0286</MEAN_ANOMALY></meanElements><tleParameters><EPHEMERIS_TYPE>0</EPHEMERIS_TYPE><CLASSIFICATION_TYPE>U</CLASSIFICATION_TYPE><NORAD_CAT_ID>64512</NORAD_CAT_ID><ELEMENT_SET_NO>999</ELEMENT_SET_NO><REV_AT_EPOCH>2112</REV_AT_EPOCH><BSTAR>.16669E-2</BSTAR><MEAN_MOTION_DOT>.159031E-2</MEAN_MOTION_DOT><MEAN_MOTION_DDOT>0</MEAN_MOTION_DDOT></tleParameters></data></segment></body></omm>

</ndm>
