KUIPER-00047            
1 64507U 25134H   25302.50003471 -.01923746  00000+0 -13438+0 0  9990
2 64507  51.8767  77.0676 0009174 223.5038 299.0251 15.08553178  4875
KUIPER-00048            
1 64508U 25134J   25302.50003471 -.01209601  00000+0 -10588+0 0  9991
2 64508  51.8905  76.5625 0001949 280.5015 288.3186 14.99227019  5407
KUIPER-00050            
1 64510U 25134L   25301.15872005  .00008429  00000+0  76752-3 0  9992
2 64510  51.8891  93.8388 0005163 228.4293 131.6234 14.95875090 20521
KUIPER-00051            
1 64511U 25134M   25300.13023312 -.00020834  00000+0 -27140-2 0  9991
2 64511  51.9011  97.2086 0002031 204.2906 155.7961 14.79905076 20382
KUIPER-00052            
1 64512U 25134N   25302.51553193  .00159031  00000+0  16669-2 0  9995
2 64512  51.8701  58.4886 0006379 252.0016 108.0286 15.63342083 21128
